[{"OBJECT_NAME":"STARLINK-36329","OBJECT_ID":"2026-026U","EPOCH":"2026-03-07T14:00:01.000224","MEAN_MOTION":15.59879463,"ECCENTRICITY":0.00016859,"INCLINATION":97.2837,"RA_OF_ASC_NODE":121.1805,"ARG_OF_PERICENTER":91.0002,"MEAN_ANOMALY":163.5054,"EPHEMERIS_TYPE":0,"CLASSIFICATION_TYPE":"U","NORAD_CAT_ID":67739,"ELEMENT_SET_NO":999,"REV_AT_EPOCH":497,"BSTAR":-0.026313582,"MEAN_MOTION_DOT":-0.01872734,"MEAN_MOTION_DDOT":0},{"OBJECT_NAME":"STARLINK-36737","OBJECT_ID":"2026-026V","EPOCH":"2026-03-07T14:00:01.000224","MEAN_MOTION":15.59000025,"ECCENTRICITY":0.00017636,"INCLINATION":97.2837,"RA_OF_ASC_NODE":121.157,"ARG_OF_PERICENTER":90.909,"MEAN_ANOMALY":108.1619,"EPHEMERIS_TYPE":0,"CLASSIFICATION_TYPE":"U","NORAD_CAT_ID":67740,"ELEMENT_SET_NO":999,"REV_AT_EPOCH":497,"BSTAR":-0.027241203,"MEAN_MOTION_DOT":-0.01874558,"MEAN_MOTION_DDOT":0},{"OBJECT_NAME":"STARLINK-36740","OBJECT_ID":"2026-026W","EPOCH":"2026-03-07T14:00:01.000224","MEAN_MOTION":15.5470621,"ECCENTRICITY":0.00016991,"INCLINATION":97.2846,"RA_OF_ASC_NODE":121.1355,"ARG_OF_PERICENTER":67.5055,"MEAN_ANOMALY":73.4406,"EPHEMERIS_TYPE":0,"CLASSIFICATION_TYPE":"U","NORAD_CAT_ID":67741,"ELEMENT_SET_NO":999,"REV_AT_EPOCH":497,"BSTAR":-0.030686887,"MEAN_MOTION_DOT":-0.01806653,"MEAN_MOTION_DDOT":0},{"OBJECT_NAME":"STARLINK-36693","OBJECT_ID":"2026-026X","EPOCH":"2026-03-07T14:00:01.000224","MEAN_MOTION":15.55381509,"ECCENTRICITY":0.00015578,"INCLINATION":97.2843,"RA_OF_ASC_NODE":121.1323,"ARG_OF_PERICENTER":78.9291,"MEAN_ANOMALY":54.3762,"EPHEMERIS_TYPE":0,"CLASSIFICATION_TYPE":"U","NORAD_CAT_ID":67742,"ELEMENT_SET_NO":999,"REV_AT_EPOCH":511,"BSTAR":-0.030215321,"MEAN_MOTION_DOT":-0.01821763,"MEAN_MOTION_DDOT":0},{"OBJECT_NAME":"STARLINK-36717","OBJECT_ID":"2026-026Y","EPOCH":"2026-03-07T14:00:01.000224","MEAN_MOTION":15.57510503,"ECCENTRICITY":0.00017942,"INCLINATION":97.2838,"RA_OF_ASC_NODE":121.1546,"ARG_OF_PERICENTER":89.7903,"MEAN_ANOMALY":102.987,"EPHEMERIS_TYPE":0,"CLASSIFICATION_TYPE":"U","NORAD_CAT_ID":67743,"ELEMENT_SET_NO":999,"REV_AT_EPOCH":511,"BSTAR":-0.028784222,"MEAN_MOTION_DOT":-0.01872506,"MEAN_MOTION_DDOT":0},{"OBJECT_NAME":"STARLINK-36692","OBJECT_ID":"2026-026Z","EPOCH":"2026-03-07T14:00:01.000224","MEAN_MOTION":15.56243548,"ECCENTRICITY":0.00017494,"INCLINATION":97.2843,"RA_OF_ASC_NODE":121.1436,"ARG_OF_PERICENTER":75.5677,"MEAN_ANOMALY":84.5388,"EPHEMERIS_TYPE":0,"CLASSIFICATION_TYPE":"U","NORAD_CAT_ID":67744,"ELEMENT_SET_NO":999,"REV_AT_EPOCH":497,"BSTAR":-0.029188704,"MEAN_MOTION_DOT":-0.018177,"MEAN_MOTION_DDOT":0},{"OBJECT_NAME":"2026-027A","OBJECT_ID":"2026-027A","EPOCH":"2026-03-07T14:14:50.391456","MEAN_MOTION":15.17660659,"ECCENTRICITY":0.00100306,"INCLINATION":97.4902,"RA_OF_ASC_NODE":195.6288,"ARG_OF_PERICENTER":201.7732,"MEAN_ANOMALY":158.3077,"EPHEMERIS_TYPE":0,"CLASSIFICATION_TYPE":"U","NORAD_CAT_ID":67746,"ELEMENT_SET_NO":999,"REV_AT_EPOCH":354,"BSTAR":0.0006384229,"MEAN_MOTION_DOT":0.00012816,"MEAN_MOTION_DDOT":0},{"OBJECT_NAME":"2026-027B","OBJECT_ID":"2026-027B","EPOCH":"2026-03-07T14:12:36.425664","MEAN_MOTION":15.17760864,"ECCENTRICITY":0.0010145,"INCLINATION":97.4897,"RA_OF_ASC_NODE":195.6292,"ARG_OF_PERICENTER":204.2943,"MEAN_ANOMALY":155.7813,"EPHEMERIS_TYPE":0,"CLASSIFICATION_TYPE":"U","NORAD_CAT_ID":67747,"ELEMENT_SET_NO":999,"REV_AT_EPOCH":354,"BSTAR":0.00064717863,"MEAN_MOTION_DOT":0.00013031,"MEAN_MOTION_DDOT":0},{"OBJECT_NAME":"2026-027C","OBJECT_ID":"2026-027C","EPOCH":"2026-03-07T14:10:34.962816","MEAN_MOTION":15.17780008,"ECCENTRICITY":0.00104939,"INCLINATION":97.491,"RA_OF_ASC_NODE":195.6346,"ARG_OF_PERICENTER":206.6794,"MEAN_ANOMALY":153.3901,"EPHEMERIS_TYPE":0,"CLASSIFICATION_TYPE":"U","NORAD_CAT_ID":67748,"ELEMENT_SET_NO":999,"REV_AT_EPOCH":354,"BSTAR":0.00042005681,"MEAN_MOTION_DOT":8.434e-5,"MEAN_MOTION_DDOT":0},{"OBJECT_NAME":"2026-027D","OBJECT_ID":"2026-027D","EPOCH":"2026-03-07T14:05:40.454592","MEAN_MOTION":15.18113643,"ECCENTRICITY":0.00101497,"INCLINATION":97.4904,"RA_OF_ASC_NODE":195.6379,"ARG_OF_PERICENTER":212.0474,"MEAN_ANOMALY":148.0143,"EPHEMERIS_TYPE":0,"CLASSIFICATION_TYPE":"U","NORAD_CAT_ID":67749,"ELEMENT_SET_NO":999,"REV_AT_EPOCH":349,"BSTAR":0.00073169234,"MEAN_MOTION_DOT":0.00014895,"MEAN_MOTION_DDOT":0},{"OBJECT_NAME":"2026-027E","OBJECT_ID":"2026-027E","EPOCH":"2026-03-07T14:05:52.488384","MEAN_MOTION":15.18067517,"ECCENTRICITY":0.000938,"INCLINATION":97.4914,"RA_OF_ASC_NODE":195.641,"ARG_OF_PERICENTER":212.8209,"MEAN_ANOMALY":147.2443,"EPHEMERIS_TYPE":0,"CLASSIFICATION_TYPE":"U","NORAD_CAT_ID":67750,"ELEMENT_SET_NO":999,"REV_AT_EPOCH":354,"BSTAR":0.00063311321,"MEAN_MOTION_DOT":0.00012856,"MEAN_MOTION_DDOT":0},{"OBJECT_NAME":"2026-027F","OBJECT_ID":"2026-027F","EPOCH":"2026-03-07T09:17:41.728992","MEAN_MOTION":15.18306233,"ECCENTRICITY":0.00105843,"INCLINATION":97.4917,"RA_OF_ASC_NODE":195.4495,"ARG_OF_PERICENTER":214.0634,"MEAN_ANOMALY":145.9922,"EPHEMERIS_TYPE":0,"CLASSIFICATION_TYPE":"U","NORAD_CAT_ID":67751,"ELEMENT_SET_NO":999,"REV_AT_EPOCH":351,"BSTAR":-5.5058343e-5,"MEAN_MOTION_DOT":-1.198e-5,"MEAN_MOTION_DDOT":0},{"OBJECT_NAME":"2026-027G","OBJECT_ID":"2026-027G","EPOCH":"2026-03-04T13:18:19.429056","MEAN_MOTION":15.15895723,"ECCENTRICITY":0.00092681,"INCLINATION":97.4863,"RA_OF_ASC_NODE":192.6273,"ARG_OF_PERICENTER":274.5857,"MEAN_ANOMALY":85.4317,"EPHEMERIS_TYPE":0,"CLASSIFICATION_TYPE":"U","NORAD_CAT_ID":67752,"ELEMENT_SET_NO":999,"REV_AT_EPOCH":308,"BSTAR":0.00066333375,"MEAN_MOTION_DOT":0.00012661,"MEAN_MOTION_DDOT":0},{"OBJECT_NAME":"JIELONG-3 R/B","OBJECT_ID":"2026-027H","EPOCH":"2026-03-07T14:27:15.042816","MEAN_MOTION":15.73630514,"ECCENTRICITY":0.0221019,"INCLINATION":97.5131,"RA_OF_ASC_NODE":197.4563,"ARG_OF_PERICENTER":252.5127,"MEAN_ANOMALY":105.1874,"EPHEMERIS_TYPE":0,"CLASSIFICATION_TYPE":"U","NORAD_CAT_ID":67753,"ELEMENT_SET_NO":999,"REV_AT_EPOCH":365,"BSTAR":0.00076304391,"MEAN_MOTION_DOT":0.00548555,"MEAN_MOTION_DDOT":2.373281e-6},{"OBJECT_NAME":"JIELONG-3 DEB","OBJECT_ID":"2026-027J","EPOCH":"2026-03-07T14:38:28.038336","MEAN_MOTION":16.10327193,"ECCENTRICITY":0.01136725,"INCLINATION":97.4986,"RA_OF_ASC_NODE":197.9038,"ARG_OF_PERICENTER":253.904,"MEAN_ANOMALY":104.9704,"EPHEMERIS_TYPE":0,"CLASSIFICATION_TYPE":"U","NORAD_CAT_ID":67754,"ELEMENT_SET_NO":999,"REV_AT_EPOCH":362,"BSTAR":0.0013463789,"MEAN_MOTION_DOT":0.03588568,"MEAN_MOTION_DDOT":2.449607e-6},{"OBJECT_NAME":"2026-028A","OBJECT_ID":"2026-028A","EPOCH":"2026-03-05T07:50:47.616864","MEAN_MOTION":0.99523939,"ECCENTRICITY":0.0042016,"INCLINATION":0.4806,"RA_OF_ASC_NODE":289.7424,"ARG_OF_PERICENTER":229.1663,"MEAN_ANOMALY":201.2342,"EPHEMERIS_TYPE":0,"CLASSIFICATION_TYPE":"U","NORAD_CAT_ID":67756,"ELEMENT_SET_NO":999,"REV_AT_EPOCH":21,"BSTAR":0,"MEAN_MOTION_DOT":4.0e-8,"MEAN_MOTION_DDOT":0}]
