STARLINK-36329          
1 67739U 26026U   26066.58334491 -.01872734  00000+0 -26314-1 0  9995
2 67739  97.2837 121.1805 0001685  91.0002 163.5054 15.59879463  4971
STARLINK-36737          
1 67740U 26026V   26066.58334491 -.01874558  00000+0 -27241-1 0  9993
2 67740  97.2837 121.1570 0001763  90.9090 108.1619 15.59000025  4976
STARLINK-36740          
1 67741U 26026W   26066.58334491 -.01806653  00000+0 -30687-1 0  9993
2 67741  97.2846 121.1355 0001699  67.5055  73.4406 15.54706210  4979
STARLINK-36693          
1 67742U 26026X   26066.58334491 -.01821763  00000+0 -30215-1 0  9990
2 67742  97.2843 121.1323 0001557  78.9291  54.3762 15.55381509  5114
STARLINK-36717          
1 67743U 26026Y   26066.58334491 -.01872506  00000+0 -28784-1 0  9990
2 67743  97.2838 121.1546 0001794  89.7903 102.9870 15.57510503  5119
STARLINK-36692          
1 67744U 26026Z   26066.58334491 -.01817700  00000+0 -29189-1 0  9996
2 67744  97.2843 121.1436 0001749  75.5677  84.5388 15.56243548  4978
2026-027A               
1 67746U 26027A   26066.59363879  .00012816  00000+0  63842-3 0  9990
2 67746  97.4902 195.6288 0010030 201.7732 158.3077 15.17660659  3547
2026-027B               
1 67747U 26027B   26066.59208826  .00013031  00000+0  64718-3 0  9994
2 67747  97.4897 195.6292 0010145 204.2943 155.7813 15.17760864  3543
2026-027C               
1 67748U 26027C   26066.59068244  .00008434  00000+0  42006-3 0  9990
2 67748  97.4910 195.6346 0010493 206.6794 153.3901 15.17780008  3540
2026-027D               
1 67749U 26027D   26066.58727378  .00014895  00000+0  73169-3 0  9992
2 67749  97.4904 195.6379 0010149 212.0474 148.0143 15.18113643  3493
2026-027E               
1 67750U 26027E   26066.58741306  .00012856  00000+0  63311-3 0  9994
2 67750  97.4914 195.6410 0009380 212.8209 147.2443 15.18067517  3549
2026-027F               
1 67751U 26027F   26066.38728853 -.00001198  00000+0 -55058-4 0  9994
2 67751  97.4917 195.4495 0010584 214.0634 145.9922 15.18306233  3513
2026-027G               
1 67752U 26027G   26063.55439154  .00012661  00000+0  66333-3 0  9996
2 67752  97.4863 192.6273 0009268 274.5857  85.4317 15.15895723  3084
JIELONG-3 R/B           
1 67753U 26027H   26066.60225744  .00548555  23733-5  76304-3 0  9993
2 67753  97.5131 197.4563 0221019 252.5127 105.1874 15.73630514  3655
JIELONG-3 DEB           
1 67754U 26027J   26066.61004674  .03588568  24496-5  13464-2 0  9997
2 67754  97.4986 197.9038 0113672 253.9040 104.9704 16.10327193  3623
2026-028A               
1 67756U 26028A   26064.32694001  .00000004  00000+0  00000+0 0  9994
2 67756   0.4806 289.7424 0042016 229.1663 201.2342  0.99523939   215
